FENGYUN 1C DEB          
1 30758U 99025ATU 17346.49070931  .00000278  00000-0  18966-3 0  9992
2 30758  99.0236  64.5522 0044366 294.3888 134.6265 14.07574931553464
